[{"OBJECT_NAME":"APRIZESAT 2","OBJECT_ID":"2004-025A","EPOCH":"2026-03-09T10:28:26.148000","MEAN_MOTION":14.37988294,"ECCENTRICITY":0.01054712,"INCLINATION":98.091,"RA_OF_ASC_NODE":240.1116,"ARG_OF_PERICENTER":190.5785,"MEAN_ANOMALY":169.3185,"EPHEMERIS_TYPE":0,"CLASSIFICATION_TYPE":"U","NORAD_CAT_ID":28366,"ELEMENT_SET_NO":999,"REV_AT_EPOCH":13730,"BSTAR":0.00014374466,"MEAN_MOTION_DOT":4.21e-6,"MEAN_MOTION_DDOT":0},{"OBJECT_NAME":"SL-16 R\/B","OBJECT_ID":"1988-039B","EPOCH":"2026-03-09T23:31:38.445312","MEAN_MOTION":14.19615449,"ECCENTRICITY":0.00228098,"INCLINATION":71.0134,"RA_OF_ASC_NODE":67.9328,"ARG_OF_PERICENTER":333.9218,"MEAN_ANOMALY":26.0756,"EPHEMERIS_TYPE":0,"CLASSIFICATION_TYPE":"U","NORAD_CAT_ID":19120,"ELEMENT_SET_NO":999,"REV_AT_EPOCH":95842,"BSTAR":-5.864593e-6,"MEAN_MOTION_DOT":-6.1e-7,"MEAN_MOTION_DDOT":0}]
